[{"OBJECT_NAME":"STARLINK-1403","OBJECT_ID":"2020-035AW","EPOCH":"2026-03-10T00:00:02.999808","MEAN_MOTION":15.19325727,"ECCENTRICITY":0.00024214,"INCLINATION":53.1122,"RA_OF_ASC_NODE":34.9104,"ARG_OF_PERICENTER":86.0749,"MEAN_ANOMALY":53.6572,"EPHEMERIS_TYPE":0,"CLASSIFICATION_TYPE":"U","NORAD_CAT_ID":45701,"ELEMENT_SET_NO":999,"REV_AT_EPOCH":574,"BSTAR":0.080644378,"MEAN_MOTION_DOT":0.01904972,"MEAN_MOTION_DDOT":0},{"OBJECT_NAME":"CS2","OBJECT_ID":"2021-088C","EPOCH":"2026-03-09T17:38:11.846112","MEAN_MOTION":15.3325593,"ECCENTRICITY":0.00116375,"INCLINATION":97.3928,"RA_OF_ASC_NODE":134.2907,"ARG_OF_PERICENTER":82.3491,"MEAN_ANOMALY":277.9072,"EPHEMERIS_TYPE":0,"CLASSIFICATION_TYPE":"U","NORAD_CAT_ID":49262,"ELEMENT_SET_NO":999,"REV_AT_EPOCH":24526,"BSTAR":0.0005617759,"MEAN_MOTION_DOT":0.00018033,"MEAN_MOTION_DDOT":0}]
